IRIDIUM 136             
1 42962U 17061H   24228.49900736  .00000031  00000+0  41176-5 0  9991
2 42962  86.3980 305.5343 0002496  91.4012 268.7469 14.34218192358700
